CCSDS_OMM_VERS = 2.0
CREATION_DATE  = 
ORIGINATOR     = 

OBJECT_NAME    = STARLINK-36164
OBJECT_ID      = 2025-299AB
CENTER_NAME    = EARTH
REF_FRAME      = TEME
TIME_SYSTEM    = UTC
MEAN_ELEMENT_THEORY = SGP/SGP4

EPOCH          = 2026-01-08T16:10:04.039968
MEAN_MOTION    = 15.50601043
ECCENTRICITY   = .0001707
INCLINATION    = 43.0010
RA_OF_ASC_NODE = 154.3276
ARG_OF_PERICENTER = 270.6558
MEAN_ANOMALY   = 89.4106

EPHEMERIS_TYPE = 0
CLASSIFICATION_TYPE = U
NORAD_CAT_ID   = 67127
ELEMENT_SET_NO = 999
REV_AT_EPOCH   = 386
BSTAR          = .17191E-2
MEAN_MOTION_DOT = .101915E-2
MEAN_MOTION_DDOT = 0

CCSDS_OMM_VERS = 2.0
CREATION_DATE  = 
ORIGINATOR     = 

OBJECT_NAME    = STARLINK-35685
OBJECT_ID      = 2025-299AC
CENTER_NAME    = EARTH
REF_FRAME      = TEME
TIME_SYSTEM    = UTC
MEAN_ELEMENT_THEORY = SGP/SGP4

EPOCH          = 2026-01-09T04:00:01.998720
MEAN_MOTION    = 15.40647780
ECCENTRICITY   = .0002229
INCLINATION    = 43.0002
RA_OF_ASC_NODE = 151.7665
ARG_OF_PERICENTER = 279.7386
MEAN_ANOMALY   = 182.4477

EPHEMERIS_TYPE = 0
CLASSIFICATION_TYPE = U
NORAD_CAT_ID   = 67128
ELEMENT_SET_NO = 999
REV_AT_EPOCH   = 521
BSTAR          = .45286E-3
MEAN_MOTION_DOT = .18627E-3
MEAN_MOTION_DDOT = 0

CCSDS_OMM_VERS = 2.0
CREATION_DATE  = 
ORIGINATOR     = 

OBJECT_NAME    = STARLINK-36214
OBJECT_ID      = 2025-299AD
CENTER_NAME    = EARTH
REF_FRAME      = TEME
TIME_SYSTEM    = UTC
MEAN_ELEMENT_THEORY = SGP/SGP4

EPOCH          = 2026-01-08T16:09:34.318368
MEAN_MOTION    = 15.50591951
ECCENTRICITY   = .0001765
INCLINATION    = 43.0008
RA_OF_ASC_NODE = 154.3242
ARG_OF_PERICENTER = 264.6094
MEAN_ANOMALY   = 95.4565

EPHEMERIS_TYPE = 0
CLASSIFICATION_TYPE = U
NORAD_CAT_ID   = 67129
ELEMENT_SET_NO = 999
REV_AT_EPOCH   = 386
BSTAR          = .16687E-2
MEAN_MOTION_DOT = .98845E-3
MEAN_MOTION_DDOT = 0

CCSDS_OMM_VERS = 2.0
CREATION_DATE  = 
ORIGINATOR     = 

OBJECT_NAME    = STARLINK-36194
OBJECT_ID      = 2025-299AE
CENTER_NAME    = EARTH
REF_FRAME      = TEME
TIME_SYSTEM    = UTC
MEAN_ELEMENT_THEORY = SGP/SGP4

EPOCH          = 2026-01-07T16:57:14.053824
MEAN_MOTION    = 15.50593986
ECCENTRICITY   = .00034733
INCLINATION    = 42.9999
RA_OF_ASC_NODE = 159.9704
ARG_OF_PERICENTER = 262.6217
MEAN_ANOMALY   = 97.4249

EPHEMERIS_TYPE = 0
CLASSIFICATION_TYPE = U
NORAD_CAT_ID   = 67130
ELEMENT_SET_NO = 999
REV_AT_EPOCH   = 371
BSTAR          = .17928919E-2
MEAN_MOTION_DOT = .10635E-2
MEAN_MOTION_DDOT = 0

CCSDS_OMM_VERS = 2.0
CREATION_DATE  = 
ORIGINATOR     = 

OBJECT_NAME    = ZIYUAN 3-04 (ZY 3-04)
OBJECT_ID      = 2025-300A
CENTER_NAME    = EARTH
REF_FRAME      = TEME
TIME_SYSTEM    = UTC
MEAN_ELEMENT_THEORY = SGP/SGP4

EPOCH          = 2026-01-09T04:22:46.801632
MEAN_MOTION    = 15.21458354
ECCENTRICITY   = .0003946
INCLINATION    = 97.4889
RA_OF_ASC_NODE = 88.1516
ARG_OF_PERICENTER = 118.6144
MEAN_ANOMALY   = 241.5489

EPHEMERIS_TYPE = 0
CLASSIFICATION_TYPE = U
NORAD_CAT_ID   = 67131
ELEMENT_SET_NO = 999
REV_AT_EPOCH   = 366
BSTAR          = .8013E-4
MEAN_MOTION_DOT = .173E-4
MEAN_MOTION_DDOT = 0

CCSDS_OMM_VERS = 2.0
CREATION_DATE  = 
ORIGINATOR     = 

OBJECT_NAME    = CZ-4B R/B
OBJECT_ID      = 2025-300B
CENTER_NAME    = EARTH
REF_FRAME      = TEME
TIME_SYSTEM    = UTC
MEAN_ELEMENT_THEORY = SGP/SGP4

EPOCH          = 2026-01-09T04:42:44.671968
MEAN_MOTION    = 15.70090601
ECCENTRICITY   = .0155103
INCLINATION    = 97.5508
RA_OF_ASC_NODE = 90.1055
ARG_OF_PERICENTER = 288.1019
MEAN_ANOMALY   = 70.3402

EPHEMERIS_TYPE = 0
CLASSIFICATION_TYPE = U
NORAD_CAT_ID   = 67132
ELEMENT_SET_NO = 999
REV_AT_EPOCH   = 377
BSTAR          = .50307E-3
MEAN_MOTION_DOT = .123683E-2
MEAN_MOTION_DDOT = .67605E-5

CCSDS_OMM_VERS = 2.0
CREATION_DATE  = 
ORIGINATOR     = 

OBJECT_NAME    = KUIPER-00144
OBJECT_ID      = 2025-301A
CENTER_NAME    = EARTH
REF_FRAME      = TEME
TIME_SYSTEM    = UTC
MEAN_ELEMENT_THEORY = SGP/SGP4

EPOCH          = 2026-01-08T23:22:59.018880
MEAN_MOTION    = 15.36039466
ECCENTRICITY   = .0006532
INCLINATION    = 51.8704
RA_OF_ASC_NODE = 353.7783
ARG_OF_PERICENTER = 160.5450
MEAN_ANOMALY   = 199.5786

EPHEMERIS_TYPE = 0
CLASSIFICATION_TYPE = U
NORAD_CAT_ID   = 67133
ELEMENT_SET_NO = 999
REV_AT_EPOCH   = 455
BSTAR          = .86859E-3
MEAN_MOTION_DOT = .30713E-3
MEAN_MOTION_DDOT = 0

CCSDS_OMM_VERS = 2.0
CREATION_DATE  = 
ORIGINATOR     = 

OBJECT_NAME    = KUIPER-00164
OBJECT_ID      = 2025-301B
CENTER_NAME    = EARTH
REF_FRAME      = TEME
TIME_SYSTEM    = UTC
MEAN_ELEMENT_THEORY = SGP/SGP4

EPOCH          = 2026-01-09T03:49:11.321184
MEAN_MOTION    = 15.36592035
ECCENTRICITY   = .0002945
INCLINATION    = 51.8727
RA_OF_ASC_NODE = 352.7709
ARG_OF_PERICENTER = 143.5141
MEAN_ANOMALY   = 216.6046

EPHEMERIS_TYPE = 0
CLASSIFICATION_TYPE = U
NORAD_CAT_ID   = 67134
ELEMENT_SET_NO = 999
REV_AT_EPOCH   = 476
BSTAR          = .79191E-3
MEAN_MOTION_DOT = .28452E-3
MEAN_MOTION_DDOT = 0

CCSDS_OMM_VERS = 2.0
CREATION_DATE  = 
ORIGINATOR     = 

OBJECT_NAME    = KUIPER-00175
OBJECT_ID      = 2025-301C
CENTER_NAME    = EARTH
REF_FRAME      = TEME
TIME_SYSTEM    = UTC
MEAN_ELEMENT_THEORY = SGP/SGP4

EPOCH          = 2026-01-09T05:11:32.575200
MEAN_MOTION    = 15.37170133
ECCENTRICITY   = .000286
INCLINATION    = 51.8749
RA_OF_ASC_NODE = 352.4026
ARG_OF_PERICENTER = 94.1764
MEAN_ANOMALY   = 265.9549

EPHEMERIS_TYPE = 0
CLASSIFICATION_TYPE = U
NORAD_CAT_ID   = 67135
ELEMENT_SET_NO = 999
REV_AT_EPOCH   = 466
BSTAR          = .55372E-3
MEAN_MOTION_DOT = .20132E-3
MEAN_MOTION_DDOT = 0

CCSDS_OMM_VERS = 2.0
CREATION_DATE  = 
ORIGINATOR     = 

OBJECT_NAME    = KUIPER-00179
OBJECT_ID      = 2025-301D
CENTER_NAME    = EARTH
REF_FRAME      = TEME
TIME_SYSTEM    = UTC
MEAN_ELEMENT_THEORY = SGP/SGP4

EPOCH          = 2026-01-09T03:46:00.753024
MEAN_MOTION    = 15.36732858
ECCENTRICITY   = .0003305
INCLINATION    = 51.8740
RA_OF_ASC_NODE = 352.7550
ARG_OF_PERICENTER = 121.5427
MEAN_ANOMALY   = 238.5883

EPHEMERIS_TYPE = 0
CLASSIFICATION_TYPE = U
NORAD_CAT_ID   = 67136
ELEMENT_SET_NO = 999
REV_AT_EPOCH   = 476
BSTAR          = .75181E-3
MEAN_MOTION_DOT = .27111E-3
MEAN_MOTION_DDOT = 0

CCSDS_OMM_VERS = 2.0
CREATION_DATE  = 
ORIGINATOR     = 

OBJECT_NAME    = KUIPER-00181
OBJECT_ID      = 2025-301E
CENTER_NAME    = EARTH
REF_FRAME      = TEME
TIME_SYSTEM    = UTC
MEAN_ELEMENT_THEORY = SGP/SGP4

EPOCH          = 2026-01-09T04:27:54.242208
MEAN_MOTION    = 15.34709046
ECCENTRICITY   = .0010545
INCLINATION    = 51.8652
RA_OF_ASC_NODE = 352.9347
ARG_OF_PERICENTER = 188.1705
MEAN_ANOMALY   = 171.9110

EPHEMERIS_TYPE = 0
CLASSIFICATION_TYPE = U
NORAD_CAT_ID   = 67137
ELEMENT_SET_NO = 999
REV_AT_EPOCH   = 474
BSTAR          = .29797E-3
MEAN_MOTION_DOT = .9823E-4
MEAN_MOTION_DDOT = 0

CCSDS_OMM_VERS = 2.0
CREATION_DATE  = 
ORIGINATOR     = 

OBJECT_NAME    = KUIPER-00183
OBJECT_ID      = 2025-301F
CENTER_NAME    = EARTH
REF_FRAME      = TEME
TIME_SYSTEM    = UTC
MEAN_ELEMENT_THEORY = SGP/SGP4

EPOCH          = 2026-01-09T04:34:22.875456
MEAN_MOTION    = 15.34711104
ECCENTRICITY   = .0011143
INCLINATION    = 51.8630
RA_OF_ASC_NODE = 352.9600
ARG_OF_PERICENTER = 189.8240
MEAN_ANOMALY   = 170.2530

EPHEMERIS_TYPE = 0
CLASSIFICATION_TYPE = U
NORAD_CAT_ID   = 67138
ELEMENT_SET_NO = 999
REV_AT_EPOCH   = 475
BSTAR          = .53847E-3
MEAN_MOTION_DOT = .18087E-3
MEAN_MOTION_DDOT = 0

