STARLINK-36164          
1 67127U 25299AB  26008.67365787  .00101915  00000+0  17191-2 0  9992
2 67127  43.0010 154.3276 0001707 270.6558  89.4106 15.50601043  3869
STARLINK-35685          
1 67128U 25299AC  26009.16668980  .00018627  00000+0  45286-3 0  9993
2 67128  43.0002 151.7665 0002229 279.7386 182.4477 15.40647780  5216
STARLINK-36214          
1 67129U 25299AD  26008.67331387  .00098845  00000+0  16687-2 0  9999
2 67129  43.0008 154.3242 0001765 264.6094  95.4565 15.50591951  3865
STARLINK-36194          
1 67130U 25299AE  26007.70641266  .00106350  00000+0  17929-2 0  9995
2 67130  42.9999 159.9704 0003473 262.6217  97.4249 15.50593986  3716
ZIYUAN 3-04 (ZY 3-04)   
1 67131U 25300A   26009.18248613  .00001730  00000+0  80130-4 0  9994
2 67131  97.4889  88.1516 0003946 118.6144 241.5489 15.21458354  3667
CZ-4B R/B               
1 67132U 25300B   26009.19635037  .00123683  67605-5  50307-3 0  9990
2 67132  97.5508  90.1055 0155103 288.1019  70.3402 15.70090601  3771
KUIPER-00144            
1 67133U 25301A   26008.97429420  .00030713  00000+0  86859-3 0  9996
2 67133  51.8704 353.7783 0006532 160.5450 199.5786 15.36039466  4552
KUIPER-00164            
1 67134U 25301B   26009.15915881  .00028452  00000+0  79191-3 0  9997
2 67134  51.8727 352.7709 0002945 143.5141 216.6046 15.36592035  4766
KUIPER-00175            
1 67135U 25301C   26009.21634925  .00020132  00000+0  55372-3 0  9994
2 67135  51.8749 352.4026 0002860  94.1764 265.9549 15.37170133  4664
KUIPER-00179            
1 67136U 25301D   26009.15695316  .00027111  00000+0  75181-3 0  9993
2 67136  51.8740 352.7550 0003305 121.5427 238.5883 15.36732858  4762
KUIPER-00181            
1 67137U 25301E   26009.18604447  .00009823  00000+0  29797-3 0  9994
2 67137  51.8652 352.9347 0010545 188.1705 171.9110 15.34709046  4745
KUIPER-00183            
1 67138U 25301F   26009.19054254  .00018087  00000+0  53847-3 0  9996
2 67138  51.8630 352.9600 0011143 189.8240 170.2530 15.34711104  4758
